{
  "norad_id": 68419,
  "name": "TRANSPORTER-16 OBJECT D",
  "history": [
    {
      "epoch": "2026-04-14T03:08:11.951232Z",
      "apogee_km": 512.6274226501091,
      "perigee_km": 508.0245516820851,
      "latitude_deg": 5.669597587854959e-05,
      "longitude_deg": 174.20896460062426,
      "height_km": 514.1193293593748,
      "semi_major_axis_km": 6888.462987166097,
      "eccentricity": 0.0003341,
      "inclination_deg": 97.449,
      "raan_deg": 63.5703,
      "arg_perigee_deg": 108.0089,
      "mean_anomaly_deg": 252.151,
      "mean_motion_rev_day": 15.18515636
    }
  ]
}